{"type": "FeatureCollection", "features": [ {"type": "Feature", "properties": {"norad_id": 37550, "name": "IRIDIUM 33 DEB", "group": "iridium-33-debris", "lat": 58.71464179451513, "lon": -162.8793409068797, "alt_km": 660.4803645620341, "timestamp": "2025-12-14T11:29:50.446237+00:00", "meta": {"OBJECT_NAME": "IRIDIUM 33 DEB", "OBJECT_ID": "1997-051XK", "EPOCH": "2025-12-13T08:45:33.524640", "MEAN_MOTION": 14.67228096, "ECCENTRICITY": 0.00055701, "INCLINATION": 86.378, "RA_OF_ASC_NODE": 23.5976, "ARG_OF_PERICENTER": 109.645, "MEAN_ANOMALY": 250.5366, "EPHEMERIS_TYPE": 0, "CLASSIFICATION_TYPE": "U", "NORAD_CAT_ID": 37550, "ELEMENT_SET_NO": 999, "REV_AT_EPOCH": 86342, "BSTAR": 0.0021536322, "MEAN_MOTION_DOT": 0.00012161, "MEAN_MOTION_DDOT": 0}, "tle": {"line1": "1 37550U 97051XK  25347.36497135  .00012161  00000+0  21536-2 0  9990", "line2": "2 37550  86.3780  23.5976 0005570 109.6450 250.5366 14.67228096863423"}}, "geometry": {"type": "Point", "coordinates": [-162.8793409068797, 58.71464179451513]}}, {"type": "Feature", "properties": {"norad_id": 37562, "name": "IRIDIUM 33 DEB", "group": "iridium-33-debris", "lat": -81.77305578696804, "lon": -111.14573119467104, "alt_km": 729.7793624758924, "timestamp": "2025-12-14T11:29:50.446246+00:00", "meta": {"OBJECT_NAME": "IRIDIUM 33 DEB", "OBJECT_ID": "1997-051XX", "EPOCH": "2025-12-12T22:34:29.180064", "MEAN_MOTION": 14.56479735, "ECCENTRICITY": 0.00267072, "INCLINATION": 86.3742, "RA_OF_ASC_NODE": 43.5127, "ARG_OF_PERICENTER": 107.2211, "MEAN_ANOMALY": 13.868, "EPHEMERIS_TYPE": 0, "CLASSIFICATION_TYPE": "U", "NORAD_CAT_ID": 37562, "ELEMENT_SET_NO": 999, "REV_AT_EPOCH": 86331, "BSTAR": 0.0015437368, "MEAN_MOTION_DOT": 6.916e-05, "MEAN_MOTION_DDOT": 0}, "tle": {"line1": "1 37562U 97051XX  25346.94061551  .00006916  00000+0  15437-2 0  9999", "line2": "2 37562  86.3742  43.5127 0026707 107.2211  13.8680 14.56479735863311"}}, "geometry": {"type": "Point", "coordinates": [-111.14573119467104, -81.77305578696804]}}, {"type": "Feature", "properties": {"norad_id": 37565, "name": "IRIDIUM 33 DEB", "group": "iridium-33-debris", "lat": 11.866067014405173, "lon": 9.58890683885794, "alt_km": 717.8089945972333, "timestamp": "2025-12-14T11:29:50.446256+00:00", "meta": {"OBJECT_NAME": "IRIDIUM 33 DEB", "OBJECT_ID": "1997-051YA", "EPOCH": "2025-12-13T08:58:15.147552", "MEAN_MOTION": 14.51522356, "ECCENTRICITY": 0.00152671, "INCLINATION": 86.3495, "RA_OF_ASC_NODE": 9.3016, "ARG_OF_PERICENTER": 82.6927, "MEAN_ANOMALY": 277.6013, "EPHEMERIS_TYPE": 0, "CLASSIFICATION_TYPE": "U", "NORAD_CAT_ID": 37565, "ELEMENT_SET_NO": 999, "REV_AT_EPOCH": 65846, "BSTAR": 0.0008528006, "MEAN_MOTION_DOT": 3.434e-05, "MEAN_MOTION_DDOT": 0}, "tle": {"line1": "1 37565U 97051YA  25347.37378643  .00003434  00000+0  85280-3 0  9999", "line2": "2 37565  86.3495   9.3016 0015267  82.6927 277.6013 14.51522356658466"}}, "geometry": {"type": "Point", "coordinates": [9.58890683885794, 11.866067014405173]}}, {"type": "Feature", "properties": {"norad_id": 38017, "name": "IRIDIUM 33 DEB", "group": "iridium-33-debris", "lat": 83.3186843688272, "lon": -161.43039771686134, "alt_km": 657.4011819006337, "timestamp": "2025-12-14T11:29:50.446267+00:00", "meta": {"OBJECT_NAME": "IRIDIUM 33 DEB", "OBJECT_ID": "1997-051YD", "EPOCH": "2025-12-09T11:46:33.949344", "MEAN_MOTION": 14.48798991, "ECCENTRICITY": 0.0092342, "INCLINATION": 86.3421, "RA_OF_ASC_NODE": 167.6378, "ARG_OF_PERICENTER": 113.8595, "MEAN_ANOMALY": 247.2321, "EPHEMERIS_TYPE": 0, "CLASSIFICATION_TYPE": "U", "NORAD_CAT_ID": 38017, "ELEMENT_SET_NO": 999, "REV_AT_EPOCH": 61355, "BSTAR": 0.0067532519, "MEAN_MOTION_DOT": 0.00027013, "MEAN_MOTION_DDOT": 0}, "tle": {"line1": "1 38017U 97051YD  25343.49067071  .00027013  00000+0  67533-2 0  9990", "line2": "2 38017  86.3421 167.6378 0092342 113.8595 247.2321 14.48798991613556"}}, "geometry": {"type": "Point", "coordinates": [-161.43039771686134, 83.3186843688272]}}, {"type": "Feature", "properties": {"norad_id": 38022, "name": "IRIDIUM 33 DEB", "group": "iridium-33-debris", "lat": 1.3685494639486961, "lon": -164.40773590323462, "alt_km": 780.1179971891688, "timestamp": "2025-12-14T11:29:50.446277+00:00", "meta": {"OBJECT_NAME": "IRIDIUM 33 DEB", "OBJECT_ID": "1997-051YJ", "EPOCH": "2025-12-12T08:41:14.041248", "MEAN_MOTION": 14.41246239, "ECCENTRICITY": 0.00465932, "INCLINATION": 86.2691, "RA_OF_ASC_NODE": 16.6083, "ARG_OF_PERICENTER": 51.6762, "MEAN_ANOMALY": 308.8611, "EPHEMERIS_TYPE": 0, "CLASSIFICATION_TYPE": "U", "NORAD_CAT_ID": 38022, "ELEMENT_SET_NO": 999, "REV_AT_EPOCH": 69188, "BSTAR": 0.001535131, "MEAN_MOTION_DOT": 5.042e-05, "MEAN_MOTION_DDOT": 0}, "tle": {"line1": "1 38022U 97051YJ  25346.36196807  .00005042  00000+0  15351-2 0  9994", "line2": "2 38022  86.2691  16.6083 0046593  51.6762 308.8611 14.41246239691882"}}, "geometry": {"type": "Point", "coordinates": [-164.40773590323462, 1.3685494639486961]}}, {"type": "Feature", "properties": {"norad_id": 38028, "name": "IRIDIUM 33 DEB", "group": "iridium-33-debris", "lat": -7.885515159559003, "lon": -0.9901706361346981, "alt_km": 753.6400818219918, "timestamp": "2025-12-14T11:29:50.446287+00:00", "meta": {"OBJECT_NAME": "IRIDIUM 33 DEB", "OBJECT_ID": "1997-051YQ", "EPOCH": "2025-12-13T07:18:12.945600", "MEAN_MOTION": 14.4618008, "ECCENTRICITY": 0.00302038, "INCLINATION": 86.3305, "RA_OF_ASC_NODE": 0.0289, "ARG_OF_PERICENTER": 118.4875, "MEAN_ANOMALY": 241.9376, "EPHEMERIS_TYPE": 0, "CLASSIFICATION_TYPE": "U", "NORAD_CAT_ID": 38028, "ELEMENT_SET_NO": 999, "REV_AT_EPOCH": 65503, "BSTAR": 0.00033695006, "MEAN_MOTION_DOT": 1.231e-05, "MEAN_MOTION_DDOT": 0}, "tle": {"line1": "1 38028U 97051YQ  25347.30431650  .00001231  00000+0  33695-3 0  9991", "line2": "2 38028  86.3305   0.0289 0030203 118.4875 241.9376 14.46180080655032"}}, "geometry": {"type": "Point", "coordinates": [-0.9901706361346981, -7.885515159559003]}}, {"type": "Feature", "properties": {"norad_id": 38228, "name": "IRIDIUM 33 DEB", "group": "iridium-33-debris", "lat": 11.747433907327787, "lon": -133.04147173471108, "alt_km": 757.7541103348276, "timestamp": "2025-12-14T11:29:50.446298+00:00", "meta": {"OBJECT_NAME": "IRIDIUM 33 DEB", "OBJECT_ID": "1997-051ZC", "EPOCH": "2025-12-13T11:13:27.811200", "MEAN_MOTION": 14.27268948, "ECCENTRICITY": 0.00643391, "INCLINATION": 86.2949, "RA_OF_ASC_NODE": 48.1604, "ARG_OF_PERICENTER": 187.0426, "MEAN_ANOMALY": 187.919, "EPHEMERIS_TYPE": 0, "CLASSIFICATION_TYPE": "U", "NORAD_CAT_ID": 38228, "ELEMENT_SET_NO": 999, "REV_AT_EPOCH": 84792, "BSTAR": 0.00045930818, "MEAN_MOTION_DOT": 1.167e-05, "MEAN_MOTION_DDOT": 0}, "tle": {"line1": "1 38228U 97051ZC  25347.46768300  .00001167  00000+0  45931-3 0  9999", "line2": "2 38228  86.2949  48.1604 0064339 187.0426 187.9190 14.27268948847925"}}, "geometry": {"type": "Point", "coordinates": [-133.04147173471108, 11.747433907327787]}}, {"type": "Feature", "properties": {"norad_id": 38241, "name": "IRIDIUM 33 DEB", "group": "iridium-33-debris", "lat": -81.67381019781884, "lon": -164.10384818249383, "alt_km": 721.0482713590209, "timestamp": "2025-12-14T11:29:50.446307+00:00", "meta": {"OBJECT_NAME": "IRIDIUM 33 DEB", "OBJECT_ID": "1997-051ZR", "EPOCH": "2025-12-13T06:13:58.226016", "MEAN_MOTION": 14.54873749, "ECCENTRICITY": 0.00056326, "INCLINATION": 86.3232, "RA_OF_ASC_NODE": 350.3699, "ARG_OF_PERICENTER": 72.2147, "MEAN_ANOMALY": 287.9674, "EPHEMERIS_TYPE": 0, "CLASSIFICATION_TYPE": "U", "NORAD_CAT_ID": 38241, "ELEMENT_SET_NO": 999, "REV_AT_EPOCH": 60208, "BSTAR": 0.0012492013, "MEAN_MOTION_DOT": 5.385e-05, "MEAN_MOTION_DDOT": 0}, "tle": {"line1": "1 38241U 97051ZR  25347.25970169  .00005385  00000+0  12492-2 0  9990", "line2": "2 38241  86.3232 350.3699 0005632  72.2147 287.9674 14.54873749602089"}}, "geometry": {"type": "Point", "coordinates": [-164.10384818249383, -81.67381019781884]}}, {"type": "Feature", "properties": {"norad_id": 38474, "name": "IRIDIUM 33 DEB", "group": "iridium-33-debris", "lat": 9.218172679960983, "lon": 9.902070202416722, "alt_km": 719.2482390929808, "timestamp": "2025-12-14T11:29:50.446318+00:00", "meta": {"OBJECT_NAME": "IRIDIUM 33 DEB", "OBJECT_ID": "1997-051AAB", "EPOCH": "2025-12-13T08:58:04.646496", "MEAN_MOTION": 14.5069505, "ECCENTRICITY": 0.00282612, "INCLINATION": 86.3454, "RA_OF_ASC_NODE": 9.789, "ARG_OF_PERICENTER": 86.1077, "MEAN_ANOMALY": 274.3358, "EPHEMERIS_TYPE": 0, "CLASSIFICATION_TYPE": "U", "NORAD_CAT_ID": 38474, "ELEMENT_SET_NO": 999, "REV_AT_EPOCH": 65327, "BSTAR": 0.00084561127, "MEAN_MOTION_DOT": 3.359e-05, "MEAN_MOTION_DDOT": 0}, "tle": {"line1": "1 38474U 97051AAB 25347.37366489  .00003359  00000+0  84561-3 0  9991", "line2": "2 38474  86.3454   9.7890 0028261  86.1077 274.3358 14.50695050653279"}}, "geometry": {"type": "Point", "coordinates": [9.902070202416722, 9.218172679960983]}}, {"type": "Feature", "properties": {"norad_id": 39777, "name": "IRIDIUM 33 DEB", "group": "iridium-33-debris", "lat": 85.67087921285759, "lon": -74.68971720044223, "alt_km": 696.1476989639395, "timestamp": "2025-12-14T11:29:50.446328+00:00", "meta": {"OBJECT_NAME": "IRIDIUM 33 DEB", "OBJECT_ID": "1997-051AAJ", "EPOCH": "2025-12-12T06:18:37.183104", "MEAN_MOTION": 14.5641282, "ECCENTRICITY": 0.00598335, "INCLINATION": 85.9631, "RA_OF_ASC_NODE": 175.2743, "ARG_OF_PERICENTER": 188.1374, "MEAN_ANOMALY": 171.887, "EPHEMERIS_TYPE": 0, "CLASSIFICATION_TYPE": "U", "NORAD_CAT_ID": 39777, "ELEMENT_SET_NO": 999, "REV_AT_EPOCH": 60178, "BSTAR": 0.0041697031, "MEAN_MOTION_DOT": 0.00019016, "MEAN_MOTION_DDOT": 0}, "tle": {"line1": "1 39777U 97051AAJ 25346.26293036  .00019016  00000+0  41697-2 0  9991", "line2": "2 39777  85.9631 175.2743 0059833 188.1374 171.8870 14.56412820601783"}}, "geometry": {"type": "Point", "coordinates": [-74.68971720044223, 85.67087921285759]}}]}